CCSDS_OMM_VERS,COMMENT,CREATION_DATE,ORIGINATOR,OBJECT_NAME,OBJECT_ID,CENTER_NAME,REF_FRAME,TIME_SYSTEM,MEAN_ELEMENT_THEORY,EPOCH,MEAN_MOTION,ECCENTRICITY,INCLINATION,RA_OF_ASC_NODE,ARG_OF_PERICENTER,MEAN_ANOMALY,EPHEMERIS_TYPE,CLASSIFICATION_TYPE,NORAD_CAT_ID,ELEMENT_SET_NO,REV_AT_EPOCH,BSTAR,MEAN_MOTION_DOT,MEAN_MOTION_DDOT,SEMIMAJOR_AXIS,PERIOD,APOAPSIS,PERIAPSIS,OBJECT_TYPE,RCS_SIZE,COUNTRY_CODE,LAUNCH_DATE,SITE,DECAY_DATE,DECAYED,FILE,GP_ID,TLE_LINE0,TLE_LINE1,TLE_LINE2,height_km,latitude,longitude,velocity_kms,id
2.0,GENERATED VIA SPACE-TRACK.ORG API,2022-11-30T17:18:05,18 SPCS,STARLINK-2283,2021-024AP,EARTH,TEME,UTC,SGP4,2022-11-30T10:38:22.772832,15.0639483,0.000211,53.0558,232.4601,50.405,309.7125,0,U,48014,999,9538,0.00011328,1.406e-05,0.0,6925.364,95.592,548.691,545.768,PAYLOAD,LARGE,US,2021-03-24,AFETR,,0,3675646,219173386,0 STARLINK-2283,1 48014U 21024AP  22334.44331913  .00001406  00000-0  11328-3 0  9997,2 48014  53.0558 232.4601 0002110  50.4050 309.7125 15.06394830 95382,549.884468568006,36.63297074325763,43.92385865834811,7.591788340328667,6064dd0868068f00062d1976
2.0,GENERATED VIA SPACE-TRACK.ORG API,2022-11-30T17:18:05,18 SPCS,STARLINK-2325,2021-024C,EARTH,TEME,UTC,SGP4,2022-11-30T11:22:48.431424,15.06392368,0.0002549,53.056,237.1629,34.7087,325.4068,0,U,47979,999,9532,3.7728e-05,2.8e-06,0.0,6925.372,95.593,549.002,545.472,PAYLOAD,LARGE,US,2021-03-24,AFETR,,0,3675646,219174882,0 STARLINK-2325,1 47979U 21024C   22334.47417166  .00000280  00000-0  37728-4 0  9996,2 47979  53.0560 237.1629 0002549  34.7087 325.4068 15.06392368 95326,554.982919646729,-27.913176335366764,-120.7891033627702,7.584431017260159,6064dd0868068f00062d1979
2.0,GENERATED VIA SPACE-TRACK.ORG API,2021-12-20T02:55:05,18 SPCS,STARLINK-2311,2021-024L,EARTH,TEME,UTC,SGP4,2021-12-19T23:14:52.389024,16.41572834,0.0002642,53.0338,295.8635,229.8667,130.4245,0,U,47987,999,4344,0.002359,0.39336975,1.238e-05,6539.759,87.721,163.352,159.896,PAYLOAD,LARGE,US,2021-03-24,AFETR,2021-12-20,1,3244825,192041075,0 STARLINK-2311,1 47987U 21024L   21353.96866191  .39336975  12380-4  23590-2 0  9998,2 47987  53.0338 295.8635 0002642 229.8667 130.4245 16.41572834 43446,,,,,6064dd0868068f00062d197a
2.0,GENERATED VIA SPACE-TRACK.ORG API,2022-01-10T18:46:14,18 SPCS,STARLINK-2297,2021-024BH,EARTH,TEME,UTC,SGP4,2022-01-10T18:04:21.295200,16.41061267,0.0003514,53.0219,185.991,314.0409,46.2169,0,U,48032,999,4689,0.0023642,0.37000612,1.243e-05,6541.118,87.748,165.281,160.684,PAYLOAD,LARGE,US,2021-03-24,AFETR,2022-01-11,1,3268857,193577925,0 STARLINK-2297,1 48032U 21024BH  22010.75302425  .37000612  12430-4  23642-2 0  9991,2 48032  53.0219 185.9910 0003514 314.0409  46.2169 16.41061267 46895,,,,,6064dd0868068f00062d197e
2.0,GENERATED VIA SPACE-TRACK.ORG API,2021-12-20T06:26:12,18 SPCS,STARLINK-2259,2021-024AG,EARTH,TEME,UTC,SGP4,2021-12-20T05:17:25.830240,16.38204287,0.0006288,53.0262,294.5003,177.166,185.3618,0,U,48007,999,4349,0.0026147,0.29147344,1.2208e-05,6548.721,87.901,174.704,166.468,PAYLOAD,LARGE,US,2021-03-24,AFETR,2021-12-20,1,3244885,192044456,0 STARLINK-2259,1 48007U 21024AG  21354.22043785  .29147344  12208-4  26147-2 0  9997,2 48007  53.0262 294.5003 0006288 177.1660 185.3618 16.38204287 43497,,,,,6064dd0868068f00062d1980
2.0,GENERATED VIA SPACE-TRACK.ORG API,2022-11-30T17:18:05,18 SPCS,STARLINK-2270,2021-024Z,EARTH,TEME,UTC,SGP4,2022-11-30T00:44:34.602720,15.06392787,0.0001948,53.0539,209.3544,45.761,314.3539,0,U,48000,999,9562,2.4141e-05,7.8e-07,0.0,6925.371,95.593,548.585,545.887,PAYLOAD,LARGE,US,2021-03-24,AFETR,,0,3675646,219174884,0 STARLINK-2270,1 48000U 21024Z   22334.03095605  .00000078  00000-0  24141-4 0  9994,2 48000  53.0539 209.3544 0001948  45.7610 314.3539 15.06392787 95629,555.1395048472004,-23.251825719283918,71.50017706260323,7.583440463375855,6064dd0868068f00062d1983
2.0,GENERATED VIA SPACE-TRACK.ORG API,2021-11-29T10:46:14,18 SPCS,STARLINK-2262,2021-024AA,EARTH,TEME,UTC,SGP4,2021-11-29T09:55:56.687520,16.47251468,0.0004565,53.0274,38.2245,49.2529,311.4232,0,U,48001,999,4020,0.0016888,0.90326981,1.2596e-05,6524.72,87.418,149.564,143.607,PAYLOAD,LARGE,US,2021-03-24,AFETR,2021-11-29,1,3226638,190693808,0 STARLINK-2262,1 48001U 21024AA  21333.41385055  .90326981  12596-4  16888-2 0  9993,2 48001  53.0274  38.2245 0004565  49.2529 311.4232 16.47251468 40207,,,,,6064dd0868068f00062d1984
2.0,GENERATED VIA SPACE-TRACK.ORG API,2022-01-15T23:16:12,18 SPCS,STARLINK-2289,2021-024G,EARTH,TEME,UTC,SGP4,2022-01-15T21:18:40.646880,16.32435068,0.0008518,53.0305,158.6325,335.1827,165.8186,0,U,47983,999,4772,0.0032983,0.1981375,1.2285e-05,6564.141,88.212,191.597,180.415,PAYLOAD,LARGE,US,2021-03-24,AFETR,2022-01-16,1,3273956,193923018,0 STARLINK-2289,1 47983U 21024G   22015.88797045  .19813750  12285-4  32983-2 0  9991,2 47983  53.0305 158.6325 0008518 335.1827 165.8186 16.32435068 47723,,,,,6064dd0868068f00062d1985
2.0,GENERATED VIA SPACE-TRACK.ORG API,2022-11-30T17:18:05,18 SPCS,STARLINK-1647,2021-024B,EARTH,TEME,UTC,SGP4,2022-11-30T08:05:44.581920,15.06400765,0.000194,53.0558,302.7641,61.9213,298.1972,0,U,47978,999,9439,4.7445e-05,4.25e-06,0.0,6925.346,95.592,548.555,545.868,PAYLOAD,LARGE,US,2021-03-24,AFETR,,0,3675646,219174134,0 STARLINK-1647,1 47978U 21024B   22334.33732155  .00000425  00000-0  47445-4 0  9996,2 47978  53.0558 302.7641 0001940  61.9213 298.1972 15.06400765 94399,549.7986234985556,-10.811267342722934,-40.64575616639474,7.587716737349551,6064dd0868068f00062d1986
2.0,GENERATED VIA SPACE-TRACK.ORG API,2022-01-16T03:06:19,18 SPCS,STARLINK-2287,2021-024BL,EARTH,TEME,UTC,SGP4,2022-01-16T01:49:47.732160,16.30620198,0.0009456,53.0322,157.9835,264.9341,96.3496,0,U,48035,999,4775,0.0029854,0.15034532,1.2091e-05,6569.011,88.31,197.087,184.664,PAYLOAD,LARGE,US,2021-03-24,AFETR,2022-01-16,1,3274073,193925450,0 STARLINK-2287,1 48035U 21024BL  22016.07624690  .15034532  12091-4  29854-2 0  9994,2 48035  53.0322 157.9835 0009456 264.9341  96.3496 16.30620198 47754,,,,,6064dd0868068f00062d1989
2.0,GENERATED VIA SPACE-TRACK.ORG API,2022-08-21T16:16:13,18 SPCS,STARLINK-2306,2021-024M,EARTH,TEME,UTC,SGP4,2022-08-21T14:29:56.226336,16.35201297,0.0001029,53.021,261.6931,289.7372,165.8143,0,U,47988,999,8054,0.0027051,0.21359225,1.2236e-05,6556.736,88.063,179.276,177.926,PAYLOAD,LARGE,US,2021-03-24,AFETR,2022-08-21,1,3542237,210633512,0 STARLINK-2306,1 47988U 21024M   22233.60412299  .21359225  12236-4  27051-2 0  9994,2 47988  53.0210 261.6931 0001029 289.7372 165.8143 16.35201297 80548,,,,,6064dd0968068f00062d1993
2.0,GENERATED VIA SPACE-TRACK.ORG API,2022-11-30T17:18:05,18 SPCS,STARLINK-2278,2021-024BB,EARTH,TEME,UTC,SGP4,2022-11-30T07:55:07.727520,15.06396739,0.0001606,53.0551,302.7983,73.309,286.8075,0,U,48026,999,9433,0.0001031,1.254e-05,0.0,6925.359,95.592,548.336,546.111,PAYLOAD,LARGE,US,2021-03-24,AFETR,,0,3675646,219173387,0 STARLINK-2278,1 48026U 21024BB  22334.32995055  .00001254  00000-0  10310-3 0  9991,2 48026  53.0551 302.7983 0001606  73.3090 286.8075 15.06396739 94332,547.0390067043636,21.315554382903873,-15.491646587555467,7.592002517578653,6064dd0968068f00062d1992
2.0,GENERATED VIA SPACE-TRACK.ORG API,2022-11-30T17:18:05,18 SPCS,STARLINK-2264,2021-024BD,EARTH,TEME,UTC,SGP4,2022-11-30T01:47:38.811264,15.06390779,0.0001969,53.0535,234.3477,54.524,305.5932,0,U,48028,999,9532,0.00015,1.953e-05,0.0,6925.377,95.593,548.605,545.878,PAYLOAD,LARGE,US,2021-03-24,AFETR,,0,3675646,219174386,0 STARLINK-2264,1 48028U 21024BD  22334.07475476  .00001953  00000-0  15000-3 0  9992,2 48028  53.0535 234.3477 0001969  54.5240 305.5932 15.06390779 95323,553.5770922959136,-22.768480283113654,-120.32688621425932,7.5850717606953735,6064dd0968068f00062d1994
2.0,GENERATED VIA SPACE-TRACK.ORG API,2022-11-30T17:18:05,18 SPCS,STARLINK-2282,2021-024AT,EARTH,TEME,UTC,SGP4,2022-11-30T06:18:58.508352,15.06386174,0.0001761,53.0547,288.307,52.9127,307.2022,0,U,48018,999,9459,8.5394e-05,9.9e-06,0.0,6925.391,95.593,548.475,546.036,PAYLOAD,LARGE,US,2021-03-24,AFETR,,0,3675646,219174385,0 STARLINK-2282,1 48018U 21024AT  22334.26317718  .00000990  00000-0  85394-4 0  9990,2 48018  53.0547 288.3070 0001761  52.9127 307.2022 15.06386174 94590,546.8643171690865,22.749693199998717,-28.943869590292312,7.592437078009617,6064dd0968068f00062d1995
2.0,GENERATED VIA SPACE-TRACK.ORG API,2022-11-30T17:18:05,18 SPCS,STARLINK-2216,2021-024AM,EARTH,TEME,UTC,SGP4,2022-11-30T14:00:01.999872,15.54382396,0.0003358,53.0497,178.0734,187.903,160.309,0,U,48012,999,130,0.00070648,0.00046948,0.0,6782.086,92.641,406.228,401.673,PAYLOAD,LARGE,US,2021-03-24,AFETR,,0,3675646,219174885,0 STARLINK-2216,1 48012U 21024AM  22334.58335648  .00046948  00000-0  70648-3 0  9999,2 48012  53.0497 178.0734 0003358 187.9030 160.3090 15.54382396  1301,409.55524658743343,50.508079776741255,-41.25252865254433,7.6714610791172015,6064dd0968068f00062d1997
2.0,GENERATED VIA SPACE-TRACK.ORG API,2022-11-30T17:18:05,18 SPCS,STARLINK-2272,2021-024AL,EARTH,TEME,UTC,SGP4,2022-11-30T06:31:30.519264,15.0638737,0.0002191,53.055,283.0667,50.7444,309.3739,0,U,48011,999,9466,-6.6993e-05,-1.279e-05,0.0,6925.387,95.593,548.77,545.735,PAYLOAD,LARGE,US,2021-03-24,AFETR,,0,3675646,219174137,0 STARLINK-2272,1 48011U 21024AL  22334.27188101 -.00001279  00000-0 -66993-4 0  9993,2 48011  53.0550 283.0667 0002191  50.7444 309.3739 15.06387370 94662,550.5811833059752,-14.416356976533311,-63.53683584834029,7.587230582194276,6064dd0968068f00062d1998
2.0,GENERATED VIA SPACE-TRACK.ORG API,2022-11-30T17:18:05,18 SPCS,STARLINK-2268,2021-024BF,EARTH,TEME,UTC,SGP4,2022-11-30T08:32:17.097216,15.0639422,0.0002192,53.0552,302.691,49.5225,310.5955,0,U,48030,999,9433,8.9694e-05,1.054e-05,0.0,6925.366,95.593,548.749,545.713,PAYLOAD,LARGE,US,2021-03-24,AFETR,,0,3675646,219173888,0 STARLINK-2268,1 48030U 21024BF  22334.35575344  .00001054  00000-0  89694-4 0  9994,2 48030  53.0552 302.6910 0002192  49.5225 310.5955 15.06394220 94338,564.9279869233978,-47.53818124582897,-157.63374004118194,7.577749335786231,6064dd0968068f00062d199a
